{
  "type": "FeatureCollection",
  "features": [
    {
      "type": "Feature",
      "geometry": {
        "type": "Polygon",
        "coordinates": [
          [
            [
              -71.52366615357738,
              42.138721060514186
            ],
            [
              -71.52312640306576,
              42.13859370945173
            ],
            [
              -71.52295191804474,
              42.13891982763247
            ],
            [
              -71.52349166855635,
              42.13904717869492
            ],
            [
              -71.52366615357738,
              42.138721060514186
            ]
          ]
        ]
      },
      "properties": {
        "annotation_id": "https://ark.digitalcommonwealth.org/ark:/50959/n8712v26q/canvas/63960f677/f6af476a-8702-4e10-9cd4-913485f394db",
        "canvas_id": "https://ark.digitalcommonwealth.org/ark:/50959/n8712v26q/canvas/63960f677",
        "canvas_label": "",
        "comment_value": "square",
        "comment_creator": "ian",
        "comment_created": "2026-03-20T20:00:24.138Z",
        "selector_type": "xywh",
        "svg_element": null
      }
    },
    {
      "type": "Feature",
      "geometry": {
        "type": "Polygon",
        "coordinates": [
          [
            [
              -71.52011916332316,
              42.14049693758057
            ],
            [
              -71.51943560935268,
              42.13997405042334
            ],
            [
              -71.5196274565003,
              42.13926946303403
            ],
            [
              -71.51844394362118,
              42.140063247301256
            ],
            [
              -71.52011406354757,
              42.14049660529749
            ],
            [
              -71.52011916332316,
              42.14049693758057
            ]
          ]
        ]
      },
      "properties": {
        "annotation_id": "https://ark.digitalcommonwealth.org/ark:/50959/n8712v26q/canvas/3b594g977/aa830b27-8be4-46db-a9ff-f0750d123bd2",
        "canvas_id": "https://ark.digitalcommonwealth.org/ark:/50959/n8712v26q/canvas/3b594g977",
        "canvas_label": "",
        "comment_value": "complex polygon",
        "comment_creator": "ian",
        "comment_created": "2026-03-20T20:00:35.201Z",
        "selector_type": "svg",
        "svg_element": "polygon"
      }
    },
    {
      "type": "Feature",
      "geometry": {
        "type": "Polygon",
        "coordinates": [
          [
            [
              -71.52403697219403,
              42.13948592902388
            ],
            [
              -71.52404934800721,
              42.139521730548736
            ],
            [
              -71.52406632893677,
              42.13955657632998
            ],
            [
              -71.52408775339283,
              42.139590138874055
            ],
            [
              -71.52411341050434,
              42.13962209165885
            ],
            [
              -71.52414306492804,
              42.13965212202044
            ],
            [
              -71.52417642014022,
              42.13967995194034
            ],
            [
              -71.52421316451222,
              42.13970529998229
            ],
            [
              -71.524252934939,
              42.13972792882449
            ],
            [
              -71.524295352113,
              42.13974761929889
            ],
            [
              -71.52434000432164,
              42.13976418854492
            ],
            [
              -71.52438646905071,
              42.13977746580453
            ],
            [
              -71.52443428741448,
              42.13978732785183
            ],
            [
              -71.52448301596904,
              42.13979368162357
            ],
            [
              -71.52453217059579,
              42.13979646606845
            ],
            [
              -71.52458127578262,
              42.139795651175625
            ],
            [
              -71.52462987432803,
              42.13979124744373
            ],
            [
              -71.52467748886161,
              42.13978329474985
            ],
            [
              -71.5247236534883,
              42.139771874358324
            ],
            [
              -71.52476793682615,
              42.13975708988927
            ],
            [
              -71.52480991213336,
              42.13973908722792
            ],
            [
              -71.52484916127457,
              42.139718043300014
            ],
            [
              -71.52488532113338,
              42.139694154753485
            ],
            [
              -71.52491803036463,
              42.139667650154585
            ],
            [
              -71.52494698694531,
              42.139638793312045
            ],
            [
              -71.52497190539177,
              42.139607856625744
            ],
            [
              -71.52499254983842,
              42.13957513826902
            ],
            [
              -71.52500870922869,
              42.13954094930193
            ],
            [
              -71.5250202440643,
              42.13950562909793
            ],
            [
              -71.525027027083,
              42.13946951010137
            ],
            [
              -71.52502900654726,
              42.13943294184532
            ],
            [
              -71.5250261609294,
              42.13939628069831
            ],
            [
              -71.52501851511413,
              42.13935987171063
            ],
            [
              -71.52500613930093,
              42.13932407018576
            ],
            [
              -71.52498915837138,
              42.13928922440453
            ],
            [
              -71.52496773391532,
              42.13925566186045
            ],
            [
              -71.52494207680381,
              42.13922370907566
            ],
            [
              -71.5249124223801,
              42.139193678714065
            ],
            [
              -71.52487906716793,
              42.13916584879417
            ],
            [
              -71.52484232279593,
              42.13914050075222
            ],
            [
              -71.52480255236917,
              42.13911787191001
            ],
            [
              -71.52476013519517,
              42.139098181435614
            ],
            [
              -71.52471548298651,
              42.139081612189585
            ],
            [
              -71.52466901825746,
              42.13906833492997
            ],
            [
              -71.52462119989369,
              42.139058472882674
            ],
            [
              -71.5245724713391,
              42.13905211911093
            ],
            [
              -71.52452331671235,
              42.139049334666055
            ],
            [
              -71.52447421152553,
              42.139050149558884
            ],
            [
              -71.52442561298012,
              42.13905455329077
            ],
            [
              -71.52437799844654,
              42.13906250598466
            ],
            [
              -71.52433183381984,
              42.13907392637618
            ],
            [
              -71.52428755048199,
              42.13908871084523
            ],
            [
              -71.5242455751748,
              42.13910671350658
            ],
            [
              -71.52420632603359,
              42.13912775743449
            ],
            [
              -71.52417016617477,
              42.13915164598102
            ],
            [
              -71.52413745694354,
              42.139178150579916
            ],
            [
              -71.52410850036286,
              42.139207007422456
            ],
            [
              -71.52408358191639,
              42.139237944108764
            ],
            [
              -71.52406293746974,
              42.13927066246549
            ],
            [
              -71.52404677807945,
              42.13930485143258
            ],
            [
              -71.52403524324386,
              42.139340171636576
            ],
            [
              -71.52402846022515,
              42.13937629063314
            ],
            [
              -71.5240264807609,
              42.13941285888919
            ],
            [
              -71.52402932637874,
              42.13944952003619
            ],
            [
              -71.52403697219403,
              42.13948592902388
            ]
          ]
        ]
      },
      "properties": {
        "annotation_id": "https://ark.digitalcommonwealth.org/ark:/50959/n8712v26q/canvas/3t948x36k/169f3ec6-f17f-4a48-b27a-f5ab64964d1e",
        "canvas_id": "https://ark.digitalcommonwealth.org/ark:/50959/n8712v26q/canvas/3t948x36k",
        "canvas_label": "",
        "comment_value": "circle",
        "comment_creator": "ian",
        "comment_created": "2026-03-20T20:00:44.482Z",
        "selector_type": "svg",
        "svg_element": "ellipse"
      }
    },
    {
      "type": "Feature",
      "geometry": {
        "type": "Polygon",
        "coordinates": [
          [
            [
              -71.52296702476353,
              42.13905060893479
            ],
            [
              -71.52373715955014,
              42.13880543889783
            ],
            [
              -71.52363226336624,
              42.13834797451465
            ],
            [
              -71.52275660371477,
              42.13861848366185
            ],
            [
              -71.52296702476353,
              42.13905060893479
            ]
          ]
        ]
      },
      "properties": {
        "annotation_id": "https://ark.digitalcommonwealth.org/ark:/50959/n8712v26q/canvas/3t948x36k/d2d58648-9685-44a8-a373-69b5ee72e74a",
        "canvas_id": "https://ark.digitalcommonwealth.org/ark:/50959/n8712v26q/canvas/3t948x36k",
        "canvas_label": "",
        "comment_value": "polygon 2",
        "comment_creator": "ian",
        "comment_created": "2026-03-20T20:41:52.065Z",
        "selector_type": "svg",
        "svg_element": "polygon"
      }
    }
  ]
}